OBJECT_NAME,OBJECT_ID,EPOCH,MEAN_MOTION,ECCENTRICITY,INCLINATION,RA_OF_ASC_NODE,ARG_OF_PERICENTER,MEAN_ANOMALY,EPHEMERIS_TYPE,CLASSIFICATION_TYPE,NORAD_CAT_ID,ELEMENT_SET_NO,REV_AT_EPOCH,BSTAR,MEAN_MOTION_DOT,MEAN_MOTION_DDOT
HODOYOSHI-4,2014-033B,2026-06-16T03:50:19.586688,14.88127046,.0022593,97.5447,352.0323,312.2314,47.6986,0,U,40011,999,64865,.10058E-3,.877E-5,0
DEIMOS-2,2014-033D,2026-06-16T04:16:47.234208,14.93721707,.0001488,97.5830,41.7029,45.6546,314.4796,0,U,40013,999,63757,.10113E-3,.1016E-4,0
HODOYOSHI-3,2014-033F,2026-06-16T04:11:22.003872,14.85386853,.0032787,97.6416,330.2558,0.6455,359.4797,0,U,40015,999,64747,.10836E-3,.889E-5,0
SPOT 7,2014-034A,2026-06-16T03:42:06.545952,14.60957686,.0001213,98.0634,229.6722,91.9441,268.1899,0,U,40053,999,63698,.83269E-4,.363E-5,0
SKYSAT-B,2014-037D,2026-06-15T23:34:03.953280,14.88025146,.0004236,98.3839,125.8782,286.9589,73.1162,0,U,40072,999,64578,.13408E-3,.117E-4,0
WORLDVIEW-3 (WV-3),2014-048A,2026-06-16T03:45:35.326368,14.85020599,.0001069,97.8567,242.0037,27.4313,332.6958,0,U,40115,999,64175,.89632E-4,.711E-5,0
GAOFEN-2,2014-049A,2026-06-16T03:54:28.806624,14.80898059,.0006072,98.0115,231.3708,230.8494,129.2179,0,U,40118,999,63908,.64098E-4,.442E-5,0
YAOGAN-21,2014-053A,2026-06-16T04:18:07.081632,15.26362371,.0009876,97.1469,207.4577,96.4514,263.7850,0,U,40143,999,65480,.25557E-3,.6583E-4,0
YAOGAN-22,2014-063A,2026-06-16T02:54:12.100896,13.15531105,.000632,100.7722,318.3764,187.6940,172.4075,0,U,40275,999,55967,-.17597E-4,-.53E-6,0
ASNARO,2014-070A,2026-06-16T04:06:52.759872,15.19421547,.0005437,97.3456,243.3125,168.5309,191.6051,0,U,40298,999,64385,.30766E-3,.6453E-4,0
YAOGAN-24,2014-072A,2026-06-16T04:49:21.254880,14.76220699,.0012533,98.1486,304.5301,267.0001,92.9774,0,U,40310,999,62357,.50818E-4,.299E-5,0
CBERS 4,2014-079A,2026-06-16T04:49:08.178240,14.35508331,.0001864,98.3536,224.0631,64.4470,295.6909,0,U,40336,999,60381,-.23063E-5,-.49E-6,0
YAOGAN-26,2014-088A,2026-06-16T03:55:27.905088,15.47315794,.0006086,97.0634,167.3968,68.8925,291.2976,0,U,40362,999,63754,.37868E-3,.19273E-3,0
SMAP,2015-003A,2026-06-16T02:56:34.660032,14.63365870,.0001312,98.1276,174.2322,96.2477,263.8875,0,U,40376,999,60746,.78919E-4,.361E-5,0
KOMPSAT-3A,2015-014A,2026-06-16T03:31:54.786432,15.53951938,.0056399,97.6883,158.4334,178.2745,181.8713,0,U,40536,999,62165,.31711E-3,.21855E-3,0
SENTINEL-2A,2015-028A,2026-06-16T03:58:39.764928,14.30815133,.0001088,98.5690,242.0316,89.8322,270.2985,0,U,40697,999,57358,.54526E-4,.99E-6,0
GAOFEN-8,2015-030A,2026-06-16T04:21:27.815616,15.45917734,.0008561,97.6899,0.4907,190.5085,169.5986,0,U,40701,999,61129,.28384E-3,.13735E-3,0
CARBONITE 1 (CBNT-1),2015-032D,2026-06-16T04:05:59.489952,14.83582593,.0013258,97.6497,345.2794,301.6767,58.3154,0,U,40718,999,58919,.12591E-3,.988E-5,0
YAOGAN-27,2015-040A,2026-06-16T04:36:57.477024,13.16068439,.0007647,100.1143,153.6181,212.9716,147.0921,0,U,40878,999,51753,-.48591E-3,-.227E-5,0
GAOFEN-9 01,2015-047A,2026-06-16T04:26:55.751136,14.82882216,.0028335,97.6275,202.9257,140.9558,219.3709,0,U,40894,999,58004,.10816E-3,.831E-5,0
YAOGAN-28,2015-064A,2026-06-16T05:01:01.355808,15.27409740,.0010521,97.3077,305.4901,186.6148,173.4954,0,U,41026,999,59053,.2092E-3,.5548E-4,0
YAOGAN-29,2015-069A,2026-06-16T05:35:53.630304,14.83083889,.0002627,98.0023,195.8643,56.0452,304.1011,0,U,41038,999,57048,.44204E-4,.306E-5,0
KENT RIDGE 1,2015-077B,2026-06-15T15:46:26.675616,15.23124673,.00082377,14.9790,277.3724,216.8531,143.1225,0,U,41167,999,58086,.12259081E-3,.3746E-4,0
GAOFEN-4,2015-083A,2026-06-16T00:33:38.882880,1.00269269,.000439,0.3538,83.7871,115.3910,179.2311,0,U,41194,999,3851,0,-.334E-5,0
JASON-3,2016-002A,2026-06-16T03:33:29.846304,12.87628018,.0008529,66.0402,128.0191,272.8443,87.1600,0,U,41240,999,48711,-.59539E-4,-.77E-6,0
SENTINEL-3A,2016-011A,2026-06-16T03:57:02.127744,14.26739739,.0001396,98.6249,234.5629,102.3789,257.7548,0,U,41335,999,53791,.5766E-4,.96E-6,0
ZIYUAN 3-02 (ZY 3-02),2016-033A,2026-06-16T04:52:34.684608,15.21473803,.0011214,97.3837,242.9969,293.6072,66.3986,0,U,41556,999,55783,.19534E-3,.4329E-4,0
CARTOSAT-2C,2016-040A,2026-06-16T04:54:07.466112,15.19186159,.0009972,97.4486,227.1960,133.1841,227.0228,0,U,41599,999,55356,.18233E-3,.3772E-4,0
SKYSAT-C1,2016-040C,2026-06-16T01:03:15.450048,15.36285391,.000359,96.9556,198.8256,60.3015,299.8587,0,U,41601,999,55769,.22744E-3,.7972E-4,0
LAPAN-A3,2016-040E,2026-06-16T05:05:26.527776,15.33099345,.0010994,97.1486,163.3898,29.0769,331.1084,0,U,41603,999,55466,.95776E-4,.2992E-4,0
GAOFEN-3,2016-049A,2026-06-16T04:22:10.159392,14.42215599,.0001384,98.4004,174.9831,100.0924,260.0422,0,U,41727,999,51850,.3653E-4,.77E-6,0
