HODOYOSHI-4             
1 40011U 14033B   26167.15994892  .00000877  00000+0  10058-3 0  9994
2 40011  97.5447 352.0323 0022593 312.2314  47.6986 14.88127046648659
DEIMOS-2                
1 40013U 14033D   26167.17832447  .00001016  00000+0  10113-3 0  9993
2 40013  97.5830  41.7029 0001488  45.6546 314.4796 14.93721707637579
HODOYOSHI-3             
1 40015U 14033F   26167.17456023  .00000889  00000+0  10836-3 0  9996
2 40015  97.6416 330.2558 0032787   0.6455 359.4797 14.85386853647471
SPOT 7                  
1 40053U 14034A   26167.15424243  .00000363  00000+0  83269-4 0  9994
2 40053  98.0634 229.6722 0001213  91.9441 268.1899 14.60957686636986
SKYSAT-B                
1 40072U 14037D   26166.98199020  .00001170  00000+0  13408-3 0  9994
2 40072  98.3839 125.8782 0004236 286.9589  73.1162 14.88025146645789
WORLDVIEW-3 (WV-3)      
1 40115U 14048A   26167.15665887  .00000711  00000+0  89632-4 0  9996
2 40115  97.8567 242.0037 0001069  27.4313 332.6958 14.85020599641751
GAOFEN-2                
1 40118U 14049A   26167.16283341  .00000442  00000+0  64098-4 0  9992
2 40118  98.0115 231.3708 0006072 230.8494 129.2179 14.80898059639088
YAOGAN-21               
1 40143U 14053A   26167.17924863  .00006583  00000+0  25557-3 0  9995
2 40143  97.1469 207.4577 0009876  96.4514 263.7850 15.26362371654801
YAOGAN-22               
1 40275U 14063A   26167.12097339 -.00000053  00000+0 -17597-4 0  9990
2 40275 100.7722 318.3764 0006320 187.6940 172.4075 13.15531105559670
ASNARO                  
1 40298U 14070A   26167.17144398  .00006453  00000+0  30766-3 0  9996
2 40298  97.3456 243.3125 0005437 168.5309 191.6051 15.19421547643858
YAOGAN-24               
1 40310U 14072A   26167.20094045  .00000299  00000+0  50818-4 0  9993
2 40310  98.1486 304.5301 0012533 267.0001  92.9774 14.76220699623579
CBERS 4                 
1 40336U 14079A   26167.20078910 -.00000049  00000+0 -23063-5 0  9999
2 40336  98.3536 224.0631 0001864  64.4470 295.6909 14.35508331603815
YAOGAN-26               
1 40362U 14088A   26167.16351742  .00019273  00000+0  37868-3 0  9993
2 40362  97.0634 167.3968 0006086  68.8925 291.2976 15.47315794637541
SMAP                    
1 40376U 15003A   26167.12262338  .00000361  00000+0  78919-4 0  9995
2 40376  98.1276 174.2322 0001312  96.2477 263.8875 14.63365870607463
KOMPSAT-3A              
1 40536U 15014A   26167.14716188  .00021855  00000+0  31711-3 0  9993
2 40536  97.6883 158.4334 0056399 178.2745 181.8713 15.53951938621653
SENTINEL-2A             
1 40697U 15028A   26167.16573802  .00000099  00000+0  54526-4 0  9999
2 40697  98.5690 242.0316 0001088  89.8322 270.2985 14.30815133573582
GAOFEN-8                
1 40701U 15030A   26167.18157194  .00013735  00000+0  28384-3 0  9995
2 40701  97.6899   0.4907 0008561 190.5085 169.5986 15.45917734611299
CARBONITE 1 (CBNT-1)    
1 40718U 15032D   26167.17082743  .00000988  00000+0  12591-3 0  9990
2 40718  97.6497 345.2794 0013258 301.6767  58.3154 14.83582593589193
YAOGAN-27               
1 40878U 15040A   26167.19233191 -.00000227  00000+0 -48591-3 0  9990
2 40878 100.1143 153.6181 0007647 212.9716 147.0921 13.16068439517532
GAOFEN-9 01             
1 40894U 15047A   26167.18536749  .00000831  00000+0  10816-3 0  9997
2 40894  97.6275 202.9257 0028335 140.9558 219.3709 14.82882216580043
YAOGAN-28               
1 41026U 15064A   26167.20904347  .00005548  00000+0  20920-3 0  9997
2 41026  97.3077 305.4901 0010521 186.6148 173.4954 15.27409740590537
YAOGAN-29               
1 41038U 15069A   26167.23325961  .00000306  00000+0  44204-4 0  9996
2 41038  98.0023 195.8643 0002627  56.0452 304.1011 14.83083889570481
KENT RIDGE 1            
1 41167U 15077B   26166.65725319  .00003746  00000+0  12259-3 0  9999
2 41167  14.9790 277.3724 0008237 216.8531 143.1225 15.23124673580868
GAOFEN-4                
1 41194U 15083A   26167.02336670 -.00000334  00000+0  00000+0 0  9994
2 41194   0.3538  83.7871 0004390 115.3910 179.2311  1.00269269 38516
JASON-3                 
1 41240U 16002A   26167.14826211 -.00000077  00000+0 -59539-4 0  9997
2 41240  66.0402 128.0191 0008529 272.8443  87.1600 12.87628018487113
SENTINEL-3A             
1 41335U 16011A   26167.16460796  .00000096  00000+0  57660-4 0  9998
2 41335  98.6249 234.5629 0001396 102.3789 257.7548 14.26739739537910
ZIYUAN 3-02 (ZY 3-02)   
1 41556U 16033A   26167.20317922  .00004329  00000+0  19534-3 0  9994
2 41556  97.3837 242.9969 0011214 293.6072  66.3986 15.21473803557839
CARTOSAT-2C             
1 41599U 16040A   26167.20425308  .00003772  00000+0  18233-3 0  9993
2 41599  97.4486 227.1960 0009972 133.1841 227.0228 15.19186159553566
SKYSAT-C1               
1 41601U 16040C   26167.04392882  .00007972  00000+0  22744-3 0  9997
2 41601  96.9556 198.8256 0003590  60.3015 299.8587 15.36285391557698
LAPAN-A3                
1 41603U 16040E   26167.21211259  .00002992  00000+0  95776-4 0  9999
2 41603  97.1486 163.3898 0010994  29.0769 331.1084 15.33099345554663
GAOFEN-3                
1 41727U 16049A   26167.18206203  .00000077  00000+0  36530-4 0  9999
2 41727  98.4004 174.9831 0001384 100.0924 260.0422 14.42215599518500
